{
    "links": {
        "self": "http://www.neowsapp.com/rest/v1/neo/3552290?api_key=iIulBulltgU6a56xZRHN4H3l9WmuAYTsLGpBGhQ2"
    },
    "id": "3552290",
    "neo_reference_id": "3552290",
    "name": "(2010 WH)",
    "designation": "2010 WH",
    "nasa_jpl_url": "http://ssd.jpl.nasa.gov/sbdb.cgi?sstr=3552290",
    "absolute_magnitude_h": 19.0,
    "estimated_diameter": {
        "kilometers": {
            "estimated_diameter_min": 0.4212646106,
            "estimated_diameter_max": 0.9419763057
        },
        "meters": {
            "estimated_diameter_min": 421.2646105562,
            "estimated_diameter_max": 941.9763057186
        },
        "miles": {
            "estimated_diameter_min": 0.2617616123,
            "estimated_diameter_max": 0.5853167591
        },
        "feet": {
            "estimated_diameter_min": 1382.1017848971,
            "estimated_diameter_max": 3090.4735428537
        }
    },
    "is_potentially_hazardous_asteroid": false,
    "close_approach_data": [
        {
            "close_approach_date": "1931-12-16",
            "close_approach_date_full": "1931-Dec-16 15:47",
            "epoch_date_close_approach": -1200557580000,
            "relative_velocity": {
                "kilometers_per_second": "11.4429035123",
                "kilometers_per_hour": "41194.452644122",
                "miles_per_hour": "25596.6308665657"
            },
            "miss_distance": {
                "astronomical": "0.4611173813",
                "lunar": "179.3746613257",
                "kilometers": "68982178.062457831",
                "miles": "42863537.8393508278"
            },
            "orbiting_body": "Earth"
        },
        {
            "close_approach_date": "2010-12-15",
            "close_approach_date_full": "2010-Dec-15 14:58",
            "epoch_date_close_approach": 1292425080000,
            "relative_velocity": {
                "kilometers_per_second": "10.9442279523",
                "kilometers_per_hour": "39399.2206284352",
                "miles_per_hour": "24481.1435065963"
            },
            "miss_distance": {
                "astronomical": "0.4556351161",
                "lunar": "177.2420601629",
                "kilometers": "68162042.865762707",
                "miles": "42353929.4589790766"
            },
            "orbiting_body": "Earth"
        },
        {
            "close_approach_date": "2089-12-15",
            "close_approach_date_full": "2089-Dec-15 07:57",
            "epoch_date_close_approach": 3785471820000,
            "relative_velocity": {
                "kilometers_per_second": "10.7891571091",
                "kilometers_per_hour": "38840.9655928993",
                "miles_per_hour": "24134.2655374324"
            },
            "miss_distance": {
                "astronomical": "0.453049726",
                "lunar": "176.236343414",
                "kilometers": "67775274.01368362",
                "miles": "42113602.438409156"
            },
            "orbiting_body": "Earth"
        },
        {
            "close_approach_date": "2168-12-14",
            "close_approach_date_full": "2168-Dec-14 17:40",
            "epoch_date_close_approach": 6278406000000,
            "relative_velocity": {
                "kilometers_per_second": "10.3811635377",
                "kilometers_per_hour": "37372.188735634",
                "miles_per_hour": "23221.6247174277"
            },
            "miss_distance": {
                "astronomical": "0.4521316942",
                "lunar": "175.8792290438",
                "kilometers": "67637938.411811354",
                "miles": "42028266.0525065252"
            },
            "orbiting_body": "Earth"
        }
    ],
    "orbital_data": {
        "orbit_id": "26",
        "orbit_determination_date": "2017-04-06 08:55:38",
        "first_observation_date": "2010-11-17",
        "last_observation_date": "2015-04-25",
        "data_arc_in_days": 1620,
        "observations_used": 88,
        "orbit_uncertainty": "1",
        "minimum_orbit_intersection": ".44989",
        "jupiter_tisserand_invariant": "3.265",
        "epoch_osculation": "2459000.5",
        "eccentricity": ".4688014037237074",
        "semi_major_axis": "2.424385098386304",
        "inclination": "21.91905846572319",
        "ascending_node_longitude": "46.4578218789015",
        "orbital_period": "1378.798606361896",
        "perihelion_distance": "1.287829961095966",
        "perihelion_argument": "68.34005607645815",
        "aphelion_distance": "3.560940235676642",
        "perihelion_time": "2458333.378840687981",
        "mean_anomaly": "174.1832463741922",
        "mean_motion": ".2610968696508169",
        "equinox": "J2000",
        "orbit_class": {
            "orbit_class_type": "AMO",
            "orbit_class_description": "Near-Earth asteroid orbits similar to that of 1221 Amor",
            "orbit_class_range": "1.017 AU < q (perihelion) < 1.3 AU"
        }
    },
    "is_sentry_object": false
}